{
    "links": {
        "self": "http://www.neowsapp.com/rest/v1/neo/3553288?api_key=iIulBulltgU6a56xZRHN4H3l9WmuAYTsLGpBGhQ2"
    },
    "id": "3553288",
    "neo_reference_id": "3553288",
    "name": "(2010 XN25)",
    "designation": "2010 XN25",
    "nasa_jpl_url": "http://ssd.jpl.nasa.gov/sbdb.cgi?sstr=3553288",
    "absolute_magnitude_h": 25.0,
    "estimated_diameter": {
        "kilometers": {
            "estimated_diameter_min": 0.02658,
            "estimated_diameter_max": 0.0594346868
        },
        "meters": {
            "estimated_diameter_min": 26.58,
            "estimated_diameter_max": 59.4346868419
        },
        "miles": {
            "estimated_diameter_min": 0.0165160412,
            "estimated_diameter_max": 0.0369309908
        },
        "feet": {
            "estimated_diameter_min": 87.2047272,
            "estimated_diameter_max": 194.9956979785
        }
    },
    "is_potentially_hazardous_asteroid": false,
    "close_approach_data": [
        {
            "close_approach_date": "2010-12-11",
            "close_approach_date_full": "2010-Dec-11 08:59",
            "epoch_date_close_approach": 1292057940000,
            "relative_velocity": {
                "kilometers_per_second": "4.6182994897",
                "kilometers_per_hour": "16625.8781630801",
                "miles_per_hour": "10330.6741286094"
            },
            "miss_distance": {
                "astronomical": "0.0657994329",
                "lunar": "25.5959793981",
                "kilometers": "9843455.009047923",
                "miles": "6116439.3195624174"
            },
            "orbiting_body": "Earth"
        }
    ],
    "orbital_data": {
        "orbit_id": "9",
        "orbit_determination_date": "2017-04-06 08:55:16",
        "first_observation_date": "2010-12-09",
        "last_observation_date": "2011-01-03",
        "data_arc_in_days": 25,
        "observations_used": 27,
        "orbit_uncertainty": "8",
        "minimum_orbit_intersection": ".0557124",
        "jupiter_tisserand_invariant": "4.183",
        "epoch_osculation": "2455544.5",
        "eccentricity": ".3728484618308738",
        "semi_major_axis": "1.659355334446448",
        "inclination": "2.017267814593895",
        "ascending_node_longitude": "87.29010190689792",
        "orbital_period": "780.7419600127937",
        "perihelion_distance": "1.040667250367235",
        "perihelion_argument": "343.7282553152422",
        "aphelion_distance": "2.278043418525662",
        "perihelion_time": "2455536.106127710098",
        "mean_anomaly": "3.870413246798216",
        "mean_motion": ".4610998491666835",
        "equinox": "J2000",
        "orbit_class": {
            "orbit_class_type": "AMO",
            "orbit_class_description": "Near-Earth asteroid orbits similar to that of 1221 Amor",
            "orbit_class_range": "1.017 AU < q (perihelion) < 1.3 AU"
        }
    },
    "is_sentry_object": false
}